[
    {
        "Altitude(m)": 589267.2418825692,
        "Argument of Periapsis(deg)": -0.022603160782972403,
        "Eccentricity": 0.0,
        "Inclination(deg)": 97.0,
        "Latitude(deg)": -68.91274947615129,
        "Longitude(deg)": 6.117696933454305,
        "Mean Anomaly(deg)": -69.86505673081243,
        "RAAN(deg)": 90.0059470536185,
        "Satellite Name": "Starlink Shell 3 1799",
        "Satellite Number": 1799,
        "Semi-Major Axis(m)": 6938478.169268562,
        "Time(s)": 570
    },
    {
        "Altitude(m)": 589111.9538659482,
        "Argument of Periapsis(deg)": -0.02299970746337543,
        "Eccentricity": 0.0,
        "Inclination(deg)": 97.0,
        "Latitude(deg)": -68.32722496591153,
        "Longitude(deg)": 5.509620867773399,
        "Mean Anomaly(deg)": -69.23958053310744,
        "RAAN(deg)": 90.00605138789253,
        "Satellite Name": "Starlink Shell 3 1799",
        "Satellite Number": 1799,
        "Semi-Major Axis(m)": 6938478.169268562,
        "Time(s)": 580
    },
    {
        "Altitude(m)": 588952.6516047255,
        "Argument of Periapsis(deg)": -0.023396254143778456,
        "Eccentricity": 0.0,
        "Inclination(deg)": 97.0,
        "Latitude(deg)": -67.73981762762938,
        "Longitude(deg)": 4.929937506825113,
        "Mean Anomaly(deg)": -68.61410433540243,
        "RAAN(deg)": 90.00615572216653,
        "Satellite Name": "Starlink Shell 3 1799",
        "Satellite Number": 1799,
        "Semi-Major Axis(m)": 6938478.169268562,
        "Time(s)": 590
    },
    {
        "Altitude(m)": 588789.3993803114,
        "Argument of Periapsis(deg)": -0.023792800824181483,
        "Eccentricity": 0.0,
        "Inclination(deg)": 97.0,
        "Latitude(deg)": -67.15066656427013,
        "Longitude(deg)": 4.376533655895162,
        "Mean Anomaly(deg)": -67.98862813769732,
        "RAAN(deg)": 90.00626005644054,
        "Satellite Name": "Starlink Shell 3 1799",
        "Satellite Number": 1799,
        "Semi-Major Axis(m)": 6938478.169268562,
        "Time(s)": 600
    },
    {
        "Altitude(m)": 588622.2630514574,
        "Argument of Periapsis(deg)": -0.024189347504584503,
        "Eccentricity": 0.0,
        "Inclination(deg)": 97.0,
        "Latitude(deg)": -66.55989717755236,
        "Longitude(deg)": 3.8474926593619143,
        "Mean Anomaly(deg)": -67.36315193999233,
        "RAAN(deg)": 90.00636439071454,
        "Satellite Name": "Starlink Shell 3 1799",
        "Satellite Number": 1799,
        "Semi-Major Axis(m)": 6938478.169268562,
        "Time(s)": 610
    },
    {
        "Altitude(m)": 588451.3100260117,
        "Argument of Periapsis(deg)": -0.02458589418498753,
        "Eccentricity": 0.0,
        "Inclination(deg)": 97.0,
        "Latitude(deg)": -65.9676227634002,
        "Longitude(deg)": 3.34107347499176,
        "Mean Anomaly(deg)": -66.73767574228731,
        "RAAN(deg)": 90.00646872498854,
        "Satellite Name": "Starlink Shell 3 1799",
        "Satellite Number": 1799,
        "Semi-Major Axis(m)": 6938478.169268562,
        "Time(s)": 620
    },
    {
        "Altitude(m)": 588276.6092319798,
        "Argument of Periapsis(deg)": -0.024982440865390556,
        "Eccentricity": 0.0,
        "Inclination(deg)": 97.0,
        "Latitude(deg)": -65.37394589598465,
        "Longitude(deg)": 2.8556906770043478,
        "Mean Anomaly(deg)": -66.11219954458225,
        "RAAN(deg)": 90.00657305926256,
        "Satellite Name": "Starlink Shell 3 1799",
        "Satellite Number": 1799,
        "Semi-Major Axis(m)": 6938478.169268562,
        "Time(s)": 630
    },
    {
        "Altitude(m)": 588098.2310879133,
        "Argument of Periapsis(deg)": -0.025378987545793576,
        "Eccentricity": 0.0,
        "Inclination(deg)": 97.0,
        "Latitude(deg)": -64.77895963138234,
        "Longitude(deg)": 2.3898992497891856,
        "Mean Anomaly(deg)": -65.4867233468772,
        "RAAN(deg)": 90.00667739353656,
        "Satellite Name": "Starlink Shell 3 1799",
        "Satellite Number": 1799,
        "Semi-Major Axis(m)": 6938478.169268562,
        "Time(s)": 640
    },
    {
        "Altitude(m)": 587916.2474726024,
        "Argument of Periapsis(deg)": -0.025775534226196602,
        "Eccentricity": 0.0,
        "Inclination(deg)": 97.0,
        "Latitude(deg)": -64.18274855697233,
        "Longitude(deg)": 1.9423788341701427,
        "Mean Anomaly(deg)": -64.86124714917214,
        "RAAN(deg)": 90.00678172781058,
        "Satellite Name": "Starlink Shell 3 1799",
        "Satellite Number": 1799,
        "Semi-Major Axis(m)": 6938478.169268562,
        "Time(s)": 650
    },
    {
        "Altitude(m)": 587730.7316941457,
        "Argument of Periapsis(deg)": -0.026172080906599626,
        "Eccentricity": 0.0,
        "Inclination(deg)": 97.0,
        "Latitude(deg)": -63.58538970857364,
        "Longitude(deg)": 1.511921373149056,
        "Mean Anomaly(deg)": -64.23577095146715,
        "RAAN(deg)": 90.0068860620846,
        "Satellite Name": "Starlink Shell 3 1799",
        "Satellite Number": 1799,
        "Semi-Major Axis(m)": 6938478.169268562,
        "Time(s)": 660
    },
    {
        "Altitude(m)": 587541.7584583343,
        "Argument of Periapsis(deg)": -0.026568627587002652,
        "Eccentricity": 0.0,
        "Inclination(deg)": 97.0,
        "Latitude(deg)": -62.98695337392139,
        "Longitude(deg)": 1.0974202551964005,
        "Mean Anomaly(deg)": -63.610294753762076,
        "RAAN(deg)": 90.0069903963586,
        "Satellite Name": "Starlink Shell 3 1799",
        "Satellite Number": 1799,
        "Semi-Major Axis(m)": 6938478.169268562,
        "Time(s)": 670
    },
    {
        "Altitude(m)": 587349.4038364151,
        "Argument of Periapsis(deg)": -0.02696517426740568,
        "Eccentricity": 0.0,
        "Inclination(deg)": 97.0,
        "Latitude(deg)": -62.387503798228366,
        "Longitude(deg)": 0.6978592511730956,
        "Mean Anomaly(deg)": -62.98481855605701,
        "RAAN(deg)": 90.0070947306326,
        "Satellite Name": "Starlink Shell 3 1799",
        "Satellite Number": 1799,
        "Semi-Major Axis(m)": 6938478.169268562,
        "Time(s)": 680
    },
    {
        "Altitude(m)": 587153.7452322313,
        "Argument of Periapsis(deg)": -0.0273617209478087,
        "Eccentricity": 0.0,
        "Inclination(deg)": 97.0,
        "Latitude(deg)": -61.7870998051869,
        "Longitude(deg)": 0.31230410542999565,
        "Mean Anomaly(deg)": -62.35934235835196,
        "RAAN(deg)": 90.00719906490663,
        "Satellite Name": "Starlink Shell 3 1799",
        "Satellite Number": 1799,
        "Semi-Major Axis(m)": 6938478.169268562,
        "Time(s)": 690
    },
    {
        "Altitude(m)": 586954.8613487376,
        "Argument of Periapsis(deg)": -0.027758267628211725,
        "Eccentricity": 0.0,
        "Inclination(deg)": 97.0,
        "Latitude(deg)": -61.18579534477876,
        "Longitude(deg)": -0.06010487470979196,
        "Mean Anomaly(deg)": -61.73386616064688,
        "RAAN(deg)": 90.00730339918063,
        "Satellite Name": "Starlink Shell 3 1799",
        "Satellite Number": 1799,
        "Semi-Major Axis(m)": 6938478.169268562,
        "Time(s)": 700
    },
    {
        "Altitude(m)": 586752.8321539271,
        "Argument of Periapsis(deg)": -0.028154814308614752,
        "Eccentricity": 0.0,
        "Inclination(deg)": 97.0,
        "Latitude(deg)": -60.58363997758472,
        "Longitude(deg)": -0.4201608676993075,
        "Mean Anomaly(deg)": -61.10838996294189,
        "RAAN(deg)": 90.00740773345464,
        "Satellite Name": "Starlink Shell 3 1799",
        "Satellite Number": 1799,
        "Semi-Major Axis(m)": 6938478.169268562,
        "Time(s)": 710
    },
    {
        "Altitude(m)": 586547.7388461686,
        "Argument of Periapsis(deg)": -0.02855136098901778,
        "Eccentricity": 0.0,
        "Inclination(deg)": 97.0,
        "Latitude(deg)": -59.980679303866964,
        "Longitude(deg)": -0.7685963062301928,
        "Mean Anomaly(deg)": -60.48291376523683,
        "RAAN(deg)": 90.00751206772864,
        "Satellite Name": "Starlink Shell 3 1799",
        "Satellite Number": 1799,
        "Semi-Major Axis(m)": 6938478.169268562,
        "Time(s)": 720
    },
    {
        "Altitude(m)": 586339.663818959,
        "Argument of Periapsis(deg)": -0.028947907669420805,
        "Eccentricity": 0.0,
        "Inclination(deg)": 97.0,
        "Latitude(deg)": -59.37695534452004,
        "Longitude(deg)": -1.1060879713115326,
        "Mean Anomaly(deg)": -59.857437567531775,
        "RAAN(deg)": 90.00761640200267,
        "Satellite Name": "Starlink Shell 3 1799",
        "Satellite Number": 1799,
        "Semi-Major Axis(m)": 6938478.169268562,
        "Time(s)": 730
    },
    {
        "Altitude(m)": 586128.6906251211,
        "Argument of Periapsis(deg)": -0.029344454349823825,
        "Eccentricity": 0.0,
        "Inclination(deg)": 97.0,
        "Latitude(deg)": -58.772506879979474,
        "Longitude(deg)": -1.4332630056448323,
        "Mean Anomaly(deg)": -59.2319613698267,
        "RAAN(deg)": 90.00772073627667,
        "Satellite Name": "Starlink Shell 3 1799",
        "Satellite Number": 1799,
        "Semi-Major Axis(m)": 6938478.169268562,
        "Time(s)": 740
    },
    {
        "Altitude(m)": 585914.9039404659,
        "Argument of Periapsis(deg)": -0.029741001030226845,
        "Eccentricity": 0.0,
        "Inclination(deg)": 97.0,
        "Latitude(deg)": -58.16736975232172,
        "Longitude(deg)": -1.7507028908273938,
        "Mean Anomaly(deg)": -58.60648517212166,
        "RAAN(deg)": 90.00782507055067,
        "Satellite Name": "Starlink Shell 3 1799",
        "Satellite Number": 1799,
        "Semi-Major Axis(m)": 6938478.169268562,
        "Time(s)": 750
    }
]